{"type": "FeatureCollection", "features": [ {"type": "Feature", "properties": {"norad_id": 37834, "name": "INTELSAT 18 (IS-18)", "group": "intelsat", "lat": -0.042135692270458325, "lon": -140.57493249794612, "alt_km": 35783.0162496283, "timestamp": "2025-12-19T20:42:59.748760+00:00", "meta": {"OBJECT_NAME": "INTELSAT 18 (IS-18)", "OBJECT_ID": "2011-056A", "EPOCH": "2025-12-19T05:33:33.549120", "MEAN_MOTION": 1.00272088, "ECCENTRICITY": 0.0001651, "INCLINATION": 0.036, "RA_OF_ASC_NODE": 278.9354, "ARG_OF_PERICENTER": 5.8095, "MEAN_ANOMALY": 66.7252, "EPHEMERIS_TYPE": 0, "CLASSIFICATION_TYPE": "U", "NORAD_CAT_ID": 37834, "ELEMENT_SET_NO": 999, "REV_AT_EPOCH": 5200, "BSTAR": 0, "MEAN_MOTION_DOT": 7.8e-07, "MEAN_MOTION_DDOT": 0}, "tle": {"line1": "1 37834U 11056A   25353.23163830  .00000078  00000+0  00000+0 0  9995", "line2": "2 37834   0.0360 278.9354 0001651   5.8095  66.7252  1.00272088 52007"}}, "geometry": {"type": "Point", "coordinates": [-140.57493249794612, -0.042135692270458325]}}, {"type": "Feature", "properties": {"norad_id": 38098, "name": "INTELSAT 22 (IS-22)", "group": "intelsat", "lat": 0.029229374310534843, "lon": 111.53570419663413, "alt_km": 35793.92074987285, "timestamp": "2025-12-19T20:42:59.748786+00:00", "meta": {"OBJECT_NAME": "INTELSAT 22 (IS-22)", "OBJECT_ID": "2012-011A", "EPOCH": "2025-12-19T03:20:08.830176", "MEAN_MOTION": 1.00270527, "ECCENTRICITY": 0.00018174, "INCLINATION": 0.0138, "RA_OF_ASC_NODE": 52.7133, "ARG_OF_PERICENTER": 225.8693, "MEAN_ANOMALY": 291.5453, "EPHEMERIS_TYPE": 0, "CLASSIFICATION_TYPE": "U", "NORAD_CAT_ID": 38098, "ELEMENT_SET_NO": 999, "REV_AT_EPOCH": 538, "BSTAR": 0, "MEAN_MOTION_DOT": -3.4e-07, "MEAN_MOTION_DDOT": 0}, "tle": {"line1": "1 38098U 12011A   25353.13899109 -.00000034  00000+0  00000+0 0  9997", "line2": "2 38098   0.0138  52.7133 0001817 225.8693 291.5453  1.00270527  5384"}}, "geometry": {"type": "Point", "coordinates": [111.53570419663413, 0.029229374310534843]}}, {"type": "Feature", "properties": {"norad_id": 38356, "name": "INTELSAT 19 (IS-19)", "group": "intelsat", "lat": -0.022775863294369997, "lon": -154.58269862907002, "alt_km": 35780.296051019635, "timestamp": "2025-12-19T20:42:59.748801+00:00", "meta": {"OBJECT_NAME": "INTELSAT 19 (IS-19)", "OBJECT_ID": "2012-030A", "EPOCH": "2025-12-19T05:29:33.931680", "MEAN_MOTION": 1.00271258, "ECCENTRICITY": 0.00027425, "INCLINATION": 0.0111, "RA_OF_ASC_NODE": 346.2587, "ARG_OF_PERICENTER": 278.4801, "MEAN_ANOMALY": 71.7344, "EPHEMERIS_TYPE": 0, "CLASSIFICATION_TYPE": "U", "NORAD_CAT_ID": 38356, "ELEMENT_SET_NO": 999, "REV_AT_EPOCH": 4864, "BSTAR": 0, "MEAN_MOTION_DOT": -3.2e-07, "MEAN_MOTION_DDOT": 0}, "tle": {"line1": "1 38356U 12030A   25353.22886495 -.00000032  00000+0  00000+0 0  9997", "line2": "2 38356   0.0111 346.2587 0002742 278.4801  71.7344  1.00271258 48644"}}, "geometry": {"type": "Point", "coordinates": [-154.58269862907002, -0.022775863294369997]}}, {"type": "Feature", "properties": {"norad_id": 38740, "name": "INTELSAT 20 (IS-20)", "group": "intelsat", "lat": 0.024143537355686393, "lon": 107.91760756242046, "alt_km": 35782.269367151566, "timestamp": "2025-12-19T20:42:59.748820+00:00", "meta": {"OBJECT_NAME": "INTELSAT 20 (IS-20)", "OBJECT_ID": "2012-043A", "EPOCH": "2025-12-18T23:17:38.747040", "MEAN_MOTION": 1.00276399, "ECCENTRICITY": 0.0003354, "INCLINATION": 0.0035, "RA_OF_ASC_NODE": 39.113, "ARG_OF_PERICENTER": 148.4948, "MEAN_ANOMALY": 318.1253, "EPHEMERIS_TYPE": 0, "CLASSIFICATION_TYPE": "U", "NORAD_CAT_ID": 38740, "ELEMENT_SET_NO": 999, "REV_AT_EPOCH": 4894, "BSTAR": 0, "MEAN_MOTION_DOT": -1e-08, "MEAN_MOTION_DDOT": 0}, "tle": {"line1": "1 38740U 12043A   25352.97058735 -.00000001  00000+0  00000+0 0  9993", "line2": "2 38740   0.0035  39.1130 0003354 148.4948 318.1253  1.00276399 48947"}}, "geometry": {"type": "Point", "coordinates": [107.91760756242046, 0.024143537355686393]}}, {"type": "Feature", "properties": {"norad_id": 38749, "name": "INTELSAT 21 (IS-21)", "group": "intelsat", "lat": 0.01786462992347893, "lon": -18.557090383716233, "alt_km": 35786.53773399051, "timestamp": "2025-12-19T20:42:59.748833+00:00", "meta": {"OBJECT_NAME": "INTELSAT 21 (IS-21)", "OBJECT_ID": "2012-045A", "EPOCH": "2025-12-19T01:00:09.840384", "MEAN_MOTION": 1.00268457, "ECCENTRICITY": 0.00018239, "INCLINATION": 0.0291, "RA_OF_ASC_NODE": 284.986, "ARG_OF_PERICENTER": 330.5335, "MEAN_ANOMALY": 149.4055, "EPHEMERIS_TYPE": 0, "CLASSIFICATION_TYPE": "U", "NORAD_CAT_ID": 38749, "ELEMENT_SET_NO": 999, "REV_AT_EPOCH": 4871, "BSTAR": 0, "MEAN_MOTION_DOT": -2.6e-06, "MEAN_MOTION_DDOT": 0}, "tle": {"line1": "1 38749U 12045A   25353.04178056 -.00000260  00000+0  00000+0 0  9999", "line2": "2 38749   0.0291 284.9860 0001823 330.5335 149.4055  1.00268457 48719"}}, "geometry": {"type": "Point", "coordinates": [-18.557090383716233, 0.01786462992347893]}}, {"type": "Feature", "properties": {"norad_id": 38867, "name": "INTELSAT 23 (IS-23)", "group": "intelsat", "lat": -0.019500836655035218, "lon": -13.515743376272317, "alt_km": 35785.15385056745, "timestamp": "2025-12-19T20:42:59.748845+00:00", "meta": {"OBJECT_NAME": "INTELSAT 23 (IS-23)", "OBJECT_ID": "2012-057A", "EPOCH": "2025-12-19T06:09:52.570080", "MEAN_MOTION": 1.00270551, "ECCENTRICITY": 5.697e-05, "INCLINATION": 0.0159, "RA_OF_ASC_NODE": 39.0797, "ARG_OF_PERICENTER": 251.6199, "MEAN_ANOMALY": 196.9149, "EPHEMERIS_TYPE": 0, "CLASSIFICATION_TYPE": "U", "NORAD_CAT_ID": 38867, "ELEMENT_SET_NO": 999, "REV_AT_EPOCH": 4815, "BSTAR": 0, "MEAN_MOTION_DOT": -2.6e-06, "MEAN_MOTION_DDOT": 0}, "tle": {"line1": "1 38867U 12057A   25353.25685845 -.00000260  00000+0  00000+0 0  9995", "line2": "2 38867   0.0159  39.0797 0000569 251.6199 196.9149  1.00270551 48155"}}, "geometry": {"type": "Point", "coordinates": [-13.515743376272317, -0.019500836655035218]}}, {"type": "Feature", "properties": {"norad_id": 39360, "name": "FM-6", "group": "intelsat", "lat": -0.022217655108454974, "lon": -76.67483443663969, "alt_km": 35788.55866378913, "timestamp": "2025-12-19T20:42:59.748857+00:00", "meta": {"OBJECT_NAME": "FM-6", "OBJECT_ID": "2013-058A", "EPOCH": "2025-12-18T14:27:20.008224", "MEAN_MOTION": 1.00273107, "ECCENTRICITY": 0.00028667, "INCLINATION": 0.0123, "RA_OF_ASC_NODE": 67.2703, "ARG_OF_PERICENTER": 112.0416, "MEAN_ANOMALY": 8.8268, "EPHEMERIS_TYPE": 0, "CLASSIFICATION_TYPE": "U", "NORAD_CAT_ID": 39360, "ELEMENT_SET_NO": 999, "REV_AT_EPOCH": 4426, "BSTAR": 0, "MEAN_MOTION_DOT": 8e-08, "MEAN_MOTION_DDOT": 0}, "tle": {"line1": "1 39360U 13058A   25352.60231491  .00000008  00000+0  00000+0 0  9997", "line2": "2 39360   0.0123  67.2703 0002866 112.0416   8.8268  1.00273107 44260"}}, "geometry": {"type": "Point", "coordinates": [-76.67483443663969, -0.022217655108454974]}}, {"type": "Feature", "properties": {"norad_id": 40271, "name": "INTELSAT 30 (IS-30)", "group": "intelsat", "lat": -0.03784067432392653, "lon": -55.62080648613675, "alt_km": 35791.718682982624, "timestamp": "2025-12-19T20:42:59.748869+00:00", "meta": {"OBJECT_NAME": "INTELSAT 30 (IS-30)", "OBJECT_ID": "2014-062A", "EPOCH": "2025-12-18T23:06:58.184352", "MEAN_MOTION": 1.00271369, "ECCENTRICITY": 0.00015892, "INCLINATION": 0.0165, "RA_OF_ASC_NODE": 27.1384, "ARG_OF_PERICENTER": 61.714, "MEAN_ANOMALY": 250.6555, "EPHEMERIS_TYPE": 0, "CLASSIFICATION_TYPE": "U", "NORAD_CAT_ID": 40271, "ELEMENT_SET_NO": 999, "REV_AT_EPOCH": 498, "BSTAR": 0, "MEAN_MOTION_DOT": -1.26e-06, "MEAN_MOTION_DDOT": 0}, "tle": {"line1": "1 40271U 14062A   25352.96317343 -.00000126  00000+0  00000+0 0  9998", "line2": "2 40271   0.0165  27.1384 0001589  61.7140 250.6555  1.00271369  4983"}}, "geometry": {"type": "Point", "coordinates": [-55.62080648613675, -0.03784067432392653]}}, {"type": "Feature", "properties": {"norad_id": 40333, "name": "DIRECTV 14", "group": "intelsat", "lat": -0.02965600585547399, "lon": -59.758813111428964, "alt_km": 35787.38470827371, "timestamp": "2025-12-19T20:42:59.748881+00:00", "meta": {"OBJECT_NAME": "DIRECTV 14", "OBJECT_ID": "2014-078B", "EPOCH": "2025-12-18T20:48:57.002688", "MEAN_MOTION": 1.00273138, "ECCENTRICITY": 5.178e-05, "INCLINATION": 0.0185, "RA_OF_ASC_NODE": 335.9821, "ARG_OF_PERICENTER": 184.6826, "MEAN_ANOMALY": 140.0852, "EPHEMERIS_TYPE": 0, "CLASSIFICATION_TYPE": "U", "NORAD_CAT_ID": 40333, "ELEMENT_SET_NO": 999, "REV_AT_EPOCH": 4023, "BSTAR": 0, "MEAN_MOTION_DOT": -1.01e-06, "MEAN_MOTION_DDOT": 0}, "tle": {"line1": "1 40333U 14078B   25352.86732642 -.00000101  00000+0  00000+0 0  9999", "line2": "2 40333   0.0185 335.9821 0000517 184.6826 140.0852  1.00273138 40232"}}, "geometry": {"type": "Point", "coordinates": [-59.758813111428964, -0.02965600585547399]}}, {"type": "Feature", "properties": {"norad_id": 40663, "name": "DIRECTV 15", "group": "intelsat", "lat": -0.04771509345560251, "lon": -63.438862281306996, "alt_km": 35787.27958375893, "timestamp": "2025-12-19T20:42:59.748892+00:00", "meta": {"OBJECT_NAME": "DIRECTV 15", "OBJECT_ID": "2015-026A", "EPOCH": "2025-12-19T05:58:50.122272", "MEAN_MOTION": 1.00270166, "ECCENTRICITY": 1.768e-05, "INCLINATION": 0.0257, "RA_OF_ASC_NODE": 4.7351, "ARG_OF_PERICENTER": 100.2973, "MEAN_ANOMALY": 329.8977, "EPHEMERIS_TYPE": 0, "CLASSIFICATION_TYPE": "U", "NORAD_CAT_ID": 40663, "ELEMENT_SET_NO": 999, "REV_AT_EPOCH": 3865, "BSTAR": 0, "MEAN_MOTION_DOT": 0, "MEAN_MOTION_DDOT": 0}, "tle": {"line1": "1 40663U 15026A   25353.24919123  .00000000  00000+0  00000+0 0  9990", "line2": "2 40663   0.0257   4.7351 0000176 100.2973 329.8977  1.00270166 38651"}}, "geometry": {"type": "Point", "coordinates": [-63.438862281306996, -0.04771509345560251]}}]}